CCSDS_OMM_VERS = 2.0
CREATION_DATE  = 
ORIGINATOR     = 

OBJECT_NAME    = HULIANWANG DIGUI-142
OBJECT_ID      = 2026-007F
CENTER_NAME    = EARTH
REF_FRAME      = TEME
TIME_SYSTEM    = UTC
MEAN_ELEMENT_THEORY = SGP/SGP4

EPOCH          = 2026-01-23T21:10:17.218272
MEAN_MOTION    = 13.90535672
ECCENTRICITY   = .0002523
INCLINATION    = 50.0048
RA_OF_ASC_NODE = 253.5982
ARG_OF_PERICENTER = 314.3162
MEAN_ANOMALY   = 45.7530

EPHEMERIS_TYPE = 0
CLASSIFICATION_TYPE = U
NORAD_CAT_ID   = 67440
ELEMENT_SET_NO = 999
REV_AT_EPOCH   = 143
BSTAR          = .25024E-4
MEAN_MOTION_DOT = -.115E-5
MEAN_MOTION_DDOT = 0

CCSDS_OMM_VERS = 2.0
CREATION_DATE  = 
ORIGINATOR     = 

OBJECT_NAME    = HULIANWANG DIGUI-143
OBJECT_ID      = 2026-007G
CENTER_NAME    = EARTH
REF_FRAME      = TEME
TIME_SYSTEM    = UTC
MEAN_ELEMENT_THEORY = SGP/SGP4

EPOCH          = 2026-01-23T19:25:36.591456
MEAN_MOTION    = 13.91012328
ECCENTRICITY   = .000743
INCLINATION    = 50.0266
RA_OF_ASC_NODE = 253.8698
ARG_OF_PERICENTER = 282.2294
MEAN_ANOMALY   = 77.7773

EPHEMERIS_TYPE = 0
CLASSIFICATION_TYPE = U
NORAD_CAT_ID   = 67441
ELEMENT_SET_NO = 999
REV_AT_EPOCH   = 142
BSTAR          = .23176E-3
MEAN_MOTION_DOT = .146E-5
MEAN_MOTION_DDOT = 0

CCSDS_OMM_VERS = 2.0
CREATION_DATE  = 
ORIGINATOR     = 

OBJECT_NAME    = HULIANWANG DIGUI-144
OBJECT_ID      = 2026-007H
CENTER_NAME    = EARTH
REF_FRAME      = TEME
TIME_SYSTEM    = UTC
MEAN_ELEMENT_THEORY = SGP/SGP4

EPOCH          = 2026-01-23T21:07:43.575744
MEAN_MOTION    = 13.91086201
ECCENTRICITY   = .0002737
INCLINATION    = 50.0013
RA_OF_ASC_NODE = 253.5868
ARG_OF_PERICENTER = 328.4135
MEAN_ANOMALY   = 31.6599

EPHEMERIS_TYPE = 0
CLASSIFICATION_TYPE = U
NORAD_CAT_ID   = 67442
ELEMENT_SET_NO = 999
REV_AT_EPOCH   = 143
BSTAR          = .21238E-3
MEAN_MOTION_DOT = .122E-5
MEAN_MOTION_DDOT = 0

CCSDS_OMM_VERS = 2.0
CREATION_DATE  = 
ORIGINATOR     = 

OBJECT_NAME    = HULIANWANG DIGUI-145
OBJECT_ID      = 2026-007J
CENTER_NAME    = EARTH
REF_FRAME      = TEME
TIME_SYSTEM    = UTC
MEAN_ELEMENT_THEORY = SGP/SGP4

EPOCH          = 2026-01-23T21:05:36.166848
MEAN_MOTION    = 13.91383131
ECCENTRICITY   = .0001491
INCLINATION    = 50.0029
RA_OF_ASC_NODE = 253.5784
ARG_OF_PERICENTER = 329.9765
MEAN_ANOMALY   = 30.1049

EPHEMERIS_TYPE = 0
CLASSIFICATION_TYPE = U
NORAD_CAT_ID   = 67443
ELEMENT_SET_NO = 999
REV_AT_EPOCH   = 143
BSTAR          = .24126E-3
MEAN_MOTION_DOT = .16E-5
MEAN_MOTION_DDOT = 0

CCSDS_OMM_VERS = 2.0
CREATION_DATE  = 
ORIGINATOR     = 

OBJECT_NAME    = CZ-8A R/B
OBJECT_ID      = 2026-007K
CENTER_NAME    = EARTH
REF_FRAME      = TEME
TIME_SYSTEM    = UTC
MEAN_ELEMENT_THEORY = SGP/SGP4

EPOCH          = 2026-01-24T15:30:33.859008
MEAN_MOTION    = 14.13547655
ECCENTRICITY   = .00921815
INCLINATION    = 50.0088
RA_OF_ASC_NODE = 248.9583
ARG_OF_PERICENTER = 120.8206
MEAN_ANOMALY   = 240.1813

EPHEMERIS_TYPE = 0
CLASSIFICATION_TYPE = U
NORAD_CAT_ID   = 67444
ELEMENT_SET_NO = 999
REV_AT_EPOCH   = 155
BSTAR          = .16359146E-3
MEAN_MOTION_DOT = .167E-5
MEAN_MOTION_DDOT = 0

CCSDS_OMM_VERS = 2.0
CREATION_DATE  = 
ORIGINATOR     = 

OBJECT_NAME    = STARLINK-36542
OBJECT_ID      = 2026-008A
CENTER_NAME    = EARTH
REF_FRAME      = TEME
TIME_SYSTEM    = UTC
MEAN_ELEMENT_THEORY = SGP/SGP4

EPOCH          = 2026-01-24T22:00:01.999584
MEAN_MOTION    = 15.92409066
ECCENTRICITY   = .00014477
INCLINATION    = 43.0013
RA_OF_ASC_NODE = 99.6635
ARG_OF_PERICENTER = 282.5191
MEAN_ANOMALY   = 137.2513

EPHEMERIS_TYPE = 0
CLASSIFICATION_TYPE = U
NORAD_CAT_ID   = 67445
ELEMENT_SET_NO = 999
REV_AT_EPOCH   = 275
BSTAR          = -.34700142E-2
MEAN_MOTION_DOT = -.1218321E-1
MEAN_MOTION_DDOT = .43523238E-3

CCSDS_OMM_VERS = 2.0
CREATION_DATE  = 
ORIGINATOR     = 

OBJECT_NAME    = STARLINK-36539
OBJECT_ID      = 2026-008B
CENTER_NAME    = EARTH
REF_FRAME      = TEME
TIME_SYSTEM    = UTC
MEAN_ELEMENT_THEORY = SGP/SGP4

EPOCH          = 2026-01-24T22:00:01.999584
MEAN_MOTION    = 15.92469921
ECCENTRICITY   = .00015778
INCLINATION    = 43.0013
RA_OF_ASC_NODE = 99.6570
ARG_OF_PERICENTER = 279.7715
MEAN_ANOMALY   = 142.5283

EPHEMERIS_TYPE = 0
CLASSIFICATION_TYPE = U
NORAD_CAT_ID   = 67446
ELEMENT_SET_NO = 999
REV_AT_EPOCH   = 275
BSTAR          = -.35221802E-2
MEAN_MOTION_DOT = -.1240371E-1
MEAN_MOTION_DDOT = .45001453E-3

CCSDS_OMM_VERS = 2.0
CREATION_DATE  = 
ORIGINATOR     = 

OBJECT_NAME    = STARLINK-36440
OBJECT_ID      = 2026-008C
CENTER_NAME    = EARTH
REF_FRAME      = TEME
TIME_SYSTEM    = UTC
MEAN_ELEMENT_THEORY = SGP/SGP4

EPOCH          = 2026-01-24T22:00:01.999584
MEAN_MOTION    = 15.92535529
ECCENTRICITY   = .00014146
INCLINATION    = 43.0013
RA_OF_ASC_NODE = 99.6505
ARG_OF_PERICENTER = 278.7919
MEAN_ANOMALY   = 146.2489

EPHEMERIS_TYPE = 0
CLASSIFICATION_TYPE = U
NORAD_CAT_ID   = 67447
ELEMENT_SET_NO = 999
REV_AT_EPOCH   = 275
BSTAR          = -.35913622E-2
MEAN_MOTION_DOT = -.1268749E-1
MEAN_MOTION_DDOT = .46932932E-3

CCSDS_OMM_VERS = 2.0
CREATION_DATE  = 
ORIGINATOR     = 

OBJECT_NAME    = STARLINK-36423
OBJECT_ID      = 2026-008D
CENTER_NAME    = EARTH
REF_FRAME      = TEME
TIME_SYSTEM    = UTC
MEAN_ELEMENT_THEORY = SGP/SGP4

EPOCH          = 2026-01-24T22:00:01.999584
MEAN_MOTION    = 15.92591534
ECCENTRICITY   = .00015559
INCLINATION    = 43.0015
RA_OF_ASC_NODE = 99.6440
ARG_OF_PERICENTER = 283.1204
MEAN_ANOMALY   = 144.3780

EPHEMERIS_TYPE = 0
CLASSIFICATION_TYPE = U
NORAD_CAT_ID   = 67448
ELEMENT_SET_NO = 999
REV_AT_EPOCH   = 275
BSTAR          = -.36281368E-2
MEAN_MOTION_DOT = -.1285353E-1
MEAN_MOTION_DDOT = .48089052E-3

CCSDS_OMM_VERS = 2.0
CREATION_DATE  = 
ORIGINATOR     = 

OBJECT_NAME    = STARLINK-36519
OBJECT_ID      = 2026-008E
CENTER_NAME    = EARTH
REF_FRAME      = TEME
TIME_SYSTEM    = UTC
MEAN_ELEMENT_THEORY = SGP/SGP4

EPOCH          = 2026-01-24T22:00:01.999584
MEAN_MOTION    = 15.92650337
ECCENTRICITY   = .00014692
INCLINATION    = 43.0014
RA_OF_ASC_NODE = 99.6373
ARG_OF_PERICENTER = 282.5913
MEAN_ANOMALY   = 147.5797

EPHEMERIS_TYPE = 0
CLASSIFICATION_TYPE = U
NORAD_CAT_ID   = 67449
ELEMENT_SET_NO = 999
REV_AT_EPOCH   = 275
BSTAR          = -.36655656E-2
MEAN_MOTION_DOT = -.1302418E-1
MEAN_MOTION_DDOT = .49292246E-3

CCSDS_OMM_VERS = 2.0
CREATION_DATE  = 
ORIGINATOR     = 

OBJECT_NAME    = STARLINK-36525
OBJECT_ID      = 2026-008F
CENTER_NAME    = EARTH
REF_FRAME      = TEME
TIME_SYSTEM    = UTC
MEAN_ELEMENT_THEORY = SGP/SGP4

EPOCH          = 2026-01-24T22:00:01.999584
MEAN_MOTION    = 15.92716963
ECCENTRICITY   = .0001465
INCLINATION    = 43.0012
RA_OF_ASC_NODE = 99.6293
ARG_OF_PERICENTER = 282.1774
MEAN_ANOMALY   = 151.1188

EPHEMERIS_TYPE = 0
CLASSIFICATION_TYPE = U
NORAD_CAT_ID   = 67450
ELEMENT_SET_NO = 999
REV_AT_EPOCH   = 275
BSTAR          = -.37256284E-2
MEAN_MOTION_DOT = -.1328107E-1
MEAN_MOTION_DDOT = .51119776E-3

CCSDS_OMM_VERS = 2.0
CREATION_DATE  = 
ORIGINATOR     = 

OBJECT_NAME    = STARLINK-36511
OBJECT_ID      = 2026-008G
CENTER_NAME    = EARTH
REF_FRAME      = TEME
TIME_SYSTEM    = UTC
MEAN_ELEMENT_THEORY = SGP/SGP4

EPOCH          = 2026-01-24T22:00:01.999584
MEAN_MOTION    = 15.92786733
ECCENTRICITY   = .00015239
INCLINATION    = 43.0013
RA_OF_ASC_NODE = 99.6212
ARG_OF_PERICENTER = 283.0894
MEAN_ANOMALY   = 153.4403

EPHEMERIS_TYPE = 0
CLASSIFICATION_TYPE = U
NORAD_CAT_ID   = 67451
ELEMENT_SET_NO = 999
REV_AT_EPOCH   = 275
BSTAR          = -.37906078E-2
MEAN_MOTION_DOT = -.1355924E-1
MEAN_MOTION_DDOT = .53133731E-3

