HULIANWANG DIGUI-142    
1 67440U 26007F   26023.88214373 -.00000115  00000+0  25024-4 0  9999
2 67440  50.0048 253.5982 0002523 314.3162  45.7530 13.90535672  1439
HULIANWANG DIGUI-143    
1 67441U 26007G   26023.80945129  .00000146  00000+0  23176-3 0  9990
2 67441  50.0266 253.8698 0007430 282.2294  77.7773 13.91012328  1422
HULIANWANG DIGUI-144    
1 67442U 26007H   26023.88036546  .00000122  00000+0  21238-3 0  9994
2 67442  50.0013 253.5868 0002737 328.4135  31.6599 13.91086201  1438
HULIANWANG DIGUI-145    
1 67443U 26007J   26023.87889082  .00000160  00000+0  24126-3 0  9996
2 67443  50.0029 253.5784 0001491 329.9765  30.1049 13.91383131  1430
CZ-8A R/B               
1 67444U 26007K   26024.64622522  .00000167  00000+0  16359-3 0  9993
2 67444  50.0088 248.9583 0092181 120.8206 240.1813 14.13547655  1558
STARLINK-36542          
1 67445U 26008A   26024.91668981 -.01218321  43523-3 -34700-2 0  9990
2 67445  43.0013  99.6635 0001447 282.5191 137.2513 15.92409066  2759
STARLINK-36539          
1 67446U 26008B   26024.91668981 -.01240371  45001-3 -35222-2 0  9994
2 67446  43.0013  99.6570 0001577 279.7715 142.5283 15.92469921  2751
STARLINK-36440          
1 67447U 26008C   26024.91668981 -.01268749  46933-3 -35914-2 0  9997
2 67447  43.0013  99.6505 0001414 278.7919 146.2489 15.92535529  2752
STARLINK-36423          
1 67448U 26008D   26024.91668981 -.01285353  48089-3 -36281-2 0  9990
2 67448  43.0015  99.6440 0001555 283.1204 144.3780 15.92591534  2757
STARLINK-36519          
1 67449U 26008E   26024.91668981 -.01302418  49292-3 -36656-2 0  9996
2 67449  43.0014  99.6373 0001469 282.5913 147.5797 15.92650337  2756
STARLINK-36525          
1 67450U 26008F   26024.91668981 -.01328107  51120-3 -37256-2 0  9991
2 67450  43.0012  99.6293 0001465 282.1774 151.1188 15.92716963  2757
STARLINK-36511          
1 67451U 26008G   26024.91668981 -.01355924  53134-3 -37906-2 0  9998
2 67451  43.0013  99.6212 0001523 283.0894 153.4403 15.92786733  2755
